CCSDS_OEM_VERS = 1.0
CREATION_DATE  = 2017-05-11T11:03:06
ORIGINATOR     = GMAT USER

META_START
OBJECT_NAME          = MOPSSat_alt_35785_km_RAAN_0_096
OBJECT_ID            = SatId
CENTER_NAME          = Earth
REF_FRAME            = EME2000
TIME_SYSTEM          = UTC
START_TIME           = 2017-01-01T00:00:00.000
USEABLE_START_TIME   = 2017-01-01T00:00:00.000
USEABLE_STOP_TIME    = 2017-01-02T00:00:00.000
STOP_TIME            = 2017-01-02T00:00:00.000
INTERPOLATION        = Lagrange
INTERPOLATION_DEGREE = 7 
META_STOP


                                                                                   

2017-01-01T05:39:10.000  -4.773736519074880e+03   4.194624981872166e+04   1.498042528129113e-01  -3.070561328084711e+00  -4.054688346512964e-02   2.707797186077859e-05
2017-01-01T05:39:20.000  -4.804440865499250e+03   4.194583323992679e+04   1.500751761657536e-01  -3.070307694114633e+00  -4.276879105110066e-02   2.710669849905930e-05
2017-01-01T05:39:30.000  -4.835142668002047e+03   4.194539444458730e+04   1.503463867812951e-01  -3.070052489414185e+00  -4.499019147827828e-02   2.713542391493619e-05
2017-01-01T05:39:40.000  -4.865841910798993e+03   4.194493343778005e+04   1.506178846464635e-01  -3.069795714807433e+00  -4.721108375534020e-02   2.716414807970649e-05
2017-01-01T05:39:50.000  -4.896538578070019e+03   4.194445022459372e+04   1.508896697474931e-01  -3.069537371119232e+00  -4.943146688899117e-02   2.719287096462254e-05
2017-01-01T05:40:00.000  -4.927232653989664e+03   4.194394481012689e+04   1.511617420702129e-01  -3.069277459174863e+00  -5.165133988614214e-02   2.722159254093667e-05
2017-01-01T05:40:10.000  -4.957924122738204e+03   4.194341719948809e+04   1.514341016001423e-01  -3.069015979799960e+00  -5.387070175471545e-02   2.725031277990633e-05
2017-01-01T05:40:20.000  -4.988612968611465e+03   4.194286739779460e+04   1.517067483234563e-01  -3.068752933819622e+00  -5.608955151159680e-02   2.727903165290920e-05
2017-01-01T05:40:30.000  -5.019299175947557e+03   4.194229541017281e+04   1.519796822263477e-01  -3.068488322058969e+00  -5.830788817732253e-02   2.730774913136320e-05
2017-01-01T05:40:40.000  -5.049982729126912e+03   4.194170124175838e+04   1.522529032950246e-01  -3.068222145343156e+00  -6.052571077608403e-02   2.733646518672990e-05
2017-01-01T05:40:50.000  -5.080663612645319e+03   4.194108489769389e+04   1.525264115163731e-01  -3.067954404496673e+00  -6.274301834099383e-02   2.736517979057565e-05
2017-01-01T05:41:00.000  -5.111341811004290e+03   4.194044638313182e+04   1.528002068769722e-01  -3.067685100344348e+00  -6.495980990616947e-02   2.739389291447571e-05
2017-01-01T05:41:10.000  -5.142017308700011e+03   4.193978570323465e+04   1.530742893629927e-01  -3.067414233711445e+00  -6.717608450593679e-02   2.742260453000226e-05
2017-01-01T05:41:20.000  -5.172690090192634e+03   4.193910286317430e+04   1.533486589599424e-01  -3.067141805423846e+00  -6.939184117258967e-02   2.745131460869852e-05
2017-01-01T05:41:30.000  -5.203360139881953e+03   4.193839786813433e+04   1.536233156524253e-01  -3.066867816308370e+00  -7.160707893465736e-02   2.748002312205365e-05
2017-01-01T05:41:40.000  -5.234027442197537e+03   4.193767072330704e+04   1.538982594249583e-01  -3.066592267191932e+00  -7.382179682340267e-02   2.750873004158670e-05
2017-01-01T05:41:50.000  -5.264691981194916e+03   4.193692143390537e+04   1.541734902583200e-01  -3.066315158905319e+00  -7.603599384369075e-02   2.753743533847167e-05
2017-01-01T05:42:00.000  -5.295353741044979e+03   4.193615000514904e+04   1.544490081339694e-01  -3.066036492278637e+00  -7.824966900930054e-02   2.756613898399148e-05
2017-01-01T05:42:10.000  -5.326012705851961e+03   4.193535644226950e+04   1.547248130324057e-01  -3.065756268142986e+00  -8.046282132978679e-02   2.759484094937048e-05
2017-01-01T05:42:20.000  -5.356668860358715e+03   4.193454075049175e+04   1.550009049395091e-01  -3.065474487324030e+00  -8.267544986139333e-02   2.762354120642350e-05
2017-01-01T05:42:30.000  -5.387322189243189e+03   4.193370293505229e+04   1.552772838402195e-01  -3.065191150648396e+00  -8.488755365626224e-02   2.765223972690956e-05
2017-01-01T05:42:40.000  -5.417972677277909e+03   4.193284300119532e+04   1.555539497199633e-01  -3.064906258942245e+00  -8.709913177395150e-02   2.768093648267600e-05
2017-01-01T05:42:50.000  -5.448620308932615e+03   4.193196095418090e+04   1.558309025611094e-01  -3.064619813034754e+00  -8.931018325271883e-02   2.770963144530380e-05
2017-01-01T05:43:00.000  -5.479265068669380e+03   4.193105679927977e+04   1.561081423455906e-01  -3.064331813755585e+00  -9.152070713086057e-02   2.773832458636615e-05
2017-01-01T05:43:10.000  -5.509906940942468e+03   4.193013054177219e+04   1.563856690549175e-01  -3.064042261934809e+00  -9.373070244668202e-02   2.776701587743495e-05
2017-01-01T05:43:20.000  -5.540545909904074e+03   4.192918218695965e+04   1.566634826674736e-01  -3.063751158405888e+00  -9.594016821731691e-02   2.779570528978576e-05
2017-01-01T05:43:30.000  -5.571181959800816e+03   4.192821174015009e+04   1.569415831621449e-01  -3.063458504001727e+00  -9.814910346728223e-02   2.782439279478858e-05
2017-01-01T05:43:40.000  -5.601815074817509e+03   4.192721920666351e+04   1.572199705168955e-01  -3.063164299556205e+00  -1.003575072172194e-01   2.785307836375451e-05
2017-01-01T05:43:50.000  -5.632445239768449e+03   4.192620459180945e+04   1.574986447150471e-01  -3.062868545897541e+00  -1.025653785337333e-01   2.788176196860238e-05
2017-01-01T05:44:00.000  -5.663072439406105e+03   4.192516790090922e+04   1.577776057390024e-01  -3.062571243854908e+00  -1.047727164795463e-01   2.791044358119228e-05
2017-01-01T05:44:10.000  -5.693696658577464e+03   4.192410913929119e+04   1.580568535716585e-01  -3.062272394256964e+00  -1.069795201247773e-01   2.793912317347874e-05
2017-01-01T05:44:20.000  -5.724317881827015e+03   4.192302831230153e+04   1.583363881928307e-01  -3.061971997935506e+00  -1.091857885182863e-01   2.796780071712015e-05
2017-01-01T05:44:30.000  -5.754936093691619e+03   4.192192542529702e+04   1.586162095818966e-01  -3.061670055722821e+00  -1.113915207089684e-01   2.799647618377375e-05
2017-01-01T05:44:40.000  -5.785551278700363e+03   4.192080048364401e+04   1.588963177178121e-01  -3.061366568451589e+00  -1.135967157457234e-01   2.802514954508858e-05
2017-01-01T05:44:50.000  -5.816163421080577e+03   4.191965349273192e+04   1.591767125763803e-01  -3.061061536958011e+00  -1.158013726563233e-01   2.805382077244881e-05
2017-01-01T05:45:00.000  -5.846772505153965e+03   4.191848445795612e+04   1.594573941339151e-01  -3.060754962077681e+00  -1.180054904759031e-01   2.808248983732620e-05
2017-01-01T05:45:10.000  -5.877378515180512e+03   4.191729338472416e+04   1.597383623658032e-01  -3.060446844647184e+00  -1.202090682357271e-01   2.811115671114054e-05
2017-01-01T05:45:20.000  -5.907981436049164e+03   4.191608027842917e+04   1.600196172528428e-01  -3.060137185497148e+00  -1.224121050129188e-01   2.813982136588801e-05
2017-01-01T05:45:30.000  -5.938581252587125e+03   4.191484514447631e+04   1.603011587749077e-01  -3.059825985459180e+00  -1.246145998807242e-01   2.816848377351294e-05
2017-01-01T05:45:40.000  -5.969177949716071e+03   4.191358798827721e+04   1.605829869123744e-01  -3.059513245364311e+00  -1.268165519197660e-01   2.819714390604747e-05
2017-01-01T05:45:50.000  -5.999771512055461e+03   4.191230881526310e+04   1.608651016425124e-01  -3.059198966046850e+00  -1.290179601894497e-01   2.822580173525840e-05
2017-01-01T05:46:00.000  -6.030361924217183e+03   4.191100763087597e+04   1.611475029421528e-01  -3.058883148341576e+00  -1.312188237492125e-01   2.825445723290485e-05
2017-01-01T05:46:10.000  -6.060949170805373e+03   4.190968444056721e+04   1.614301907877051e-01  -3.058565793083670e+00  -1.334191416584924e-01   2.828311037074429e-05
2017-01-01T05:46:20.000  -6.091533236122736e+03   4.190833924981334e+04   1.617131651524001e-01  -3.058246901111951e+00  -1.356189129556432e-01   2.831176112024109e-05
2017-01-01T05:46:30.000  -6.122114104566304e+03   4.190697206409602e+04   1.619964260099883e-01  -3.057926473264584e+00  -1.378181366863615e-01   2.834040945295313e-05
2017-01-01T05:46:40.000  -6.152691760468505e+03   4.190558288890975e+04   1.622799733332600e-01  -3.057604510380775e+00  -1.400168118922661e-01   2.836905534037787e-05
2017-01-01T05:46:50.000  -6.183266188798775e+03   4.190417172972986e+04   1.625638071005506e-01  -3.057281013293387e+00  -1.422149376613449e-01   2.839769875462177e-05
2017-01-01T05:47:00.000  -6.213837374460149e+03   4.190273859204448e+04   1.628479272892220e-01  -3.056955982836323e+00  -1.444125130773732e-01   2.842633966772994e-05
2017-01-01T05:47:10.000  -6.244405302470880e+03   4.190128348134625e+04   1.631323338773419e-01  -3.056629419842642e+00  -1.466095372329754e-01   2.845497805185978e-05
2017-01-01T05:47:20.000  -6.274969957475978e+03   4.189980640315337e+04   1.634170268391761e-01  -3.056301325149591e+00  -1.488060091944816e-01   2.848361387881616e-05
2017-01-01T05:47:30.000  -6.305531324150362e+03   4.189830736299256e+04   1.637020061489035e-01  -3.055971699594470e+00  -1.510019280309371e-01   2.851224712043578e-05
2017-01-01T05:47:40.000  -6.336089387108849e+03   4.189678636640291e+04   1.639872717797884e-01  -3.055640544015553e+00  -1.531972928076236e-01   2.854087774850116e-05
2017-01-01T05:47:50.000  -6.366644130930853e+03   4.189524341893620e+04   1.642728237043869e-01  -3.055307859251932e+00  -1.553921025878557e-01   2.856950573476659e-05
2017-01-01T05:48:00.000  -6.397195540190602e+03   4.189367852615406e+04   1.645586618948491e-01  -3.054973646143095e+00  -1.575863564351325e-01   2.859813105098416e-05
2017-01-01T05:48:10.000  -6.427743599468190e+03   4.189209169362758e+04   1.648447863230189e-01  -3.054637905528816e+00  -1.597800534139329e-01   2.862675366891372e-05
